0 THOR ABLESTAR DEB
1  3592U 65048F   19239.69101726 +.00000039 +00000-0 +36447-4 0  9998
2  3592 089.9398 312.0265 0065714 093.4369 028.7663 13.61342035681682
0 ATLAS CENTAUR R/B
1  3598U 68110B   19239.85608697 +.00000015 +00000-0 +80027-5 0  9992
2  3598 034.9935 129.8331 0050098 251.3794 108.1454 14.54432204662343
0 ATLAS CENTAUR R/B
1  3598U 68110B   19240.13068146  .00000017  00000-0  84263-5 0  9992
2  3598  34.9935 128.2823 0050104 253.5846 105.9335 14.54432234683284
0 OPS 7684
1  3605U 68112B   19240.80708108  .00000038  00000-0  18239-3 0  9997
2  3605  80.3646   3.5884 0054373 351.1477 120.8868 12.60437828331440
0 OPS 7684
1  3605U 68112B   19239.85575454 +.00000049 +00000-0 +24220-3 0  9995
2  3605 080.3645 004.3724 0054398 353.1874 124.1463 12.60437804330925
0 COSMOS 249 DEB
1  3609U 68091AB  19239.69807169 -.00000122 +00000-0 +60385-5 0  9995
2  3609 062.2889 175.6098 0739658 258.3696 093.3471 13.55209915367180
0 OV1-5 DEB
1  3611U 66025E   19239.75993532 +.00001396 +00000-0 +88919-4 0  9995
2  3611 144.5569 189.4196 0014026 153.1666 206.9772 14.92468836762319
0 OV1-5 DEB
1  3611U 66025E   19240.49580429  .00001376  00000-0  87076-4 0  9996
2  3611 144.5570 193.8093 0014121 159.5350 200.5929 14.92469876763592
0 ESSA 8 (TOS-F)
1  3615U 68114A   19239.88364653 -.00000044 +00000-0 -54269-5 0  9993
2  3615 101.3306 212.3193 0031926 146.4665 268.6074 12.56203684324486
0 ESSA 8 (TOS-F)
1  3615U 68114A   19240.84038792 -.00000043  00000-0 -77642-6 0  9993
2  3615 101.3307 213.2377 0031943 144.5933 275.2965 12.56203693325043
0 DELTA 1 R/B
1  3616U 68114B   19240.86456920 -.00000021  00000-0  13636-3 0  9998
2  3616 101.3403 235.3575 0013391 165.7616 254.8371 12.51352499318259
0 DELTA 1 R/B
1  3616U 68114B   19239.82421890 -.00000018 +00000-0 +15879-3 0  9997
2  3616 101.3402 234.3669 0013371 167.7870 248.2031 12.51352447317727
0 OPS 7684 DEB
1  3617U 68112C   19239.10445472 -.00000011 +00000-0 -92204-4 0  9991
2  3617 080.1835 348.1390 0044917 033.3568 020.4338 12.63365296337067
0 ISIS 1
1  3669U 69009A   19239.84041325 +.00000044 +00000-0 +28648-4 0  9999
2  3669 088.4213 059.1811 1711303 220.4550 125.6136 11.29474021079125
0 ISIS 1
1  3669U 69009A   19240.10619037  .00000041  00000-0  26709-4 0  9994
2  3669  88.4214  59.1514 1711313 219.9191 126.2920 11.29474043 79493
0 DELTA 1 R/B
1  3670U 69009B   19239.84366622 -.00000036 +00000-0 -35827-4 0  9991
2  3670 088.4324 027.8372 1642944 030.3719 338.2945 11.43993499094794
0 INTELSAT 3-F3
1  3674U 69011A   19239.88498003 -.00000165  00000-0  00000+0 0  9993
2  3674  15.6878 320.5117 0174753 313.1248  53.8918  0.84930686176412
0 COSMOS 249 DEB *
1  3679U 68091AE  19239.85373170 -.00000037 +00000-0 +29800-4 0  9991
2  3679 062.7639 118.9041 0593867 245.6013 108.1962 13.71105907441249
0 COSMOS 249 DEB *
1  3679U 68091AE  19240.80184376 -.00000026  00000-0  33228-4 0  9993
2  3679  62.7639 116.2840 0593816 245.7421 108.0496 13.71106099441845
0 COSMOS 252 DEB *
1  3690U 68097AH  19240.53103308 -.00000205  00000-0 -10663-3 0  9995
2  3690  62.3406 324.2952 0817004 118.2223 250.3704 12.87446134370604
0 COSMOS 252 DEB *
1  3690U 68097AH  19239.59899836 -.00000220 +00000-0 -11968-3 0  9993
2  3690 062.3407 326.5650 0817073 118.0386 250.5678 12.87446323351880
0 OPS 0757 (TACSAT)
1  3691U 69013A   19239.82251913 -.00000191 +00000-0 +00000-0 0  9995
2  3691 003.3396 295.2804 0018345 271.5022 145.2577 01.00451409089153
0 OPS 0757 (TACSAT)
1  3691U 69013A   19240.10969969 -.00000194  00000-0  00000+0 0  9997
2  3691   3.3390 295.2783 0018352 271.5043 249.1139  1.00451444172503
0 TITAN 3C TRANSTAGE R/B
1  3692U 69013B   19239.83865778 -.00000267 +00000-0 +00000-0 0  9991
2  3692 005.0782 295.5557 0165808 141.9083 001.0435 00.97537195018082
0 COSMOS 249 DEB
1  3695U 68091AL  19239.55737535 -.00000408 +00000-0 -34452-3 0  9996
2  3695 062.2376 326.0632 0707192 040.0715 325.0299 12.97237320348894
0 COSMOS 252 DEB *
1  3713U 68097AQ  19239.63477757 -.00000008 +00000-0 +79282-4 0  9995
2  3713 062.2159 336.5132 0697632 148.9577 215.4662 13.03185718364419
0 COSMOS 252 DEB *
1  3713U 68097AQ  19240.63227826  .00000023  00000-0  10908-3 0  9992
2  3713  62.2158 334.0129 0697509 149.1932 215.2010 13.03185807365244
0 ATLAS CENTAUR 2 DEB
1  3741U 63047L   19240.17227380  .00000667  00000-0  16430-3 0  9997
2  3741  29.8870 202.4302 0329762  27.1662 334.5781 14.17927416557827
0 ATLAS CENTAUR 2 DEB
1  3741U 63047L   19239.18654763 +.00000666 +00000-0 +16364-3 0  9990
2  3741 029.8871 207.9979 0329726 018.3123 342.9036 14.17926435557581
0 SL-8 DEB *
1  3743U 65020ES  19239.88656307 -.00000196 +00000-0 -93342-3 0  9999
2  3743 056.6618 034.6605 0264744 040.5595 111.9566 12.20399416270735
0 SL-8 DEB *
1  3743U 65020ES  19239.88656307 -.00000196  00000-0 -93342-3 0  9999
2  3743  56.6618  34.6605 0264744  40.5595 111.9566 12.20399416271286
0 THOR ABLESTAR DEB
1  3744U 61015JC  19240.51853798  .00000164  00000-0  18279-3 0  9994
2  3744  66.9799  37.1395 0148906 137.1309 224.1493 13.88212926534926
0 SL-8 DEB *
1  3745U 65020ET  19239.49935383 +.00000026 +00000-0 +75874-3 0  9992
2  3745 056.0173 282.9759 0162612 179.1337 298.9071 12.50557560329998
0 THOR ABLESTAR DEB
1  3748U 61015JD  19239.61204545 +.00000241 +00000-0 +72474-3 0  9990
2  3748 067.7458 295.2383 0533192 292.7462 225.7262 12.78722553375911
0 SL-8 DEB
1  3749U 65020EU  19239.84393714 +.00000259 +00000-0 +16296-3 0  9992
2  3749 056.1166 043.2078 0497992 166.4396 195.0537 13.78638895456732
0 SL-8 DEB
1  3749U 65020EU  19239.91644536  .00000255  00000-0  16151-3 0  9997
2  3749  56.1166  42.9611 0497991 166.5624 194.9186 13.78638936476168
0 SCOUT X-4 DEB
1  3750U 63053J   19239.54535260 +.00000851 +00000-0 +24162-3 0  9998
2  3750 078.6011 044.5761 0385163 138.5600 224.5469 14.09434008453610
0 THOR ABLESTAR DEB
1  3752U 61015JE  19239.29708469 +.00000208 +00000-0 +38797-3 0  9996
2  3752 067.6275 179.1653 0200260 066.9452 085.1609 13.47970491469931
0 THOR ABLESTAR DEB
1  3752U 61015JE  19240.26121823  .00000198  00000-0  37361-3 0  9992
2  3752  67.6276 177.0497 0200323  66.1630  83.8190 13.47970976470463
0 COSMOS 249 DEB *
1  3753U 68091AR  19240.83689601  .00000584  00000-0  96070-4 0  9992
2  3753  62.4344  59.0564 0263988 214.5513 143.8162 14.61315417568545
0 COSMOS 249 DEB
1  3755U 68091AT  19238.73564824  .00000458  00000-0  73416-3 0  9997
2  3755  62.2600 352.4671 0760170 304.5810  48.5687 12.76810745329270
0 COSMOS 249 DEB
1  3757U 68091AU  19239.52785505 +.00000391 +00000-0 +10323-3 0  9992
2  3757 061.9848 291.1961 0502807 350.3279 008.8351 14.07384953480786
0 COSMOS 249 DEB
1  3757U 68091AU  19240.52255021  .00000427  00000-0  10971-3 0  9998
2  3757  61.9846 288.2038 0502940 350.6538   8.5402 14.07385874480489
0 DELTA 1 R/B
1  3767U 69016B   19240.74882229 -.00000036  00000-0  53316-4 0  9995
2  3767 101.6943 300.5606 0050826 117.5004 354.9914 12.51423637306499
0 DELTA 1 R/B
1  3767U 69016B   19239.78969427 -.00000043 +00000-0 +60585-5 0  9998
2  3767 101.6945 299.6192 0050832 119.3281 354.0191 12.51423608305926
0 COSMOS 252 DEB
1  3785U 68097AX  19239.64418946 -.00000596 +00000-0 -71925-3 0  9998
2  3785 062.2666 113.5819 0765038 264.1052 087.2308 12.74690262239124
0 COSMOS 252 DEB
1  3785U 68097AX  19240.03642391 -.00000586  00000-0 -70518-3 0  9992
2  3785  62.2666 112.6477 0764998 264.1880  87.1480 12.74689906240650
0 COSMOS 252 DEB
1  3788U 68097BA  19240.16086935  .00000058  00000-0  10920-2 0  9997
2  3788  61.8726 135.3353 0582609 145.5731  10.9974 11.88242032205577
0 COSMOS 252 DEB
1  3788U 68097BA  19239.80428830 +.00000056 +00000-0 +10697-2 0  9999
2  3788 061.8726 136.0619 0582619 145.4901 285.6596 11.88241964205067
0 COSMOS 249 DEB *
1  3790U 68091AX  19239.54701567 -.00000064 +00000-0 +17360-4 0  9994
2  3790 062.9695 278.6224 0844403 094.8808 274.9042 13.33646212435325
0 COSMOS 249 DEB *
1  3790U 68091AX  19240.22184470 -.00000042  00000-0  22644-4 0  9996
2  3790  62.9694 276.8741 0844376  94.9366 274.8479 13.33646392435015
0 COSMOS 249 DEB
1  3793U 68091BA  19240.04628416  .00000548  00000-0  57905-3 0  9999
2  3793  62.2238 104.6515 0682353 114.0624 253.3290 13.09416300375460
0 COSMOS 249 DEB
1  3793U 68091BA  19239.74081991 +.00000561 +00000-0 +59099-3 0  9996
2  3793 062.2238 105.4252 0682321 113.9939 253.4006 13.09416002374902
0 COSMOS 249 DEB
1  3794U 68091BB  19239.34772847 +.00000358 +00000-0 +39184-3 0  9997
2  3794 062.2674 226.6023 0654363 049.2445 316.3498 13.15941231381723
0 COSMOS 249 DEB
1  3794U 68091BB  19240.03161991  .00000361  00000-0  39395-3 0  9995
2  3794  62.2675 224.8538 0654436  49.3929 316.2148 13.15941945382470
0 THOR ABLESTAR DEB
1  3810U 65065P   19240.75344997  .00000154  00000-0  22679-3 0  9997
2  3810  89.8545 234.4310 0060765 267.8720 150.9483 13.49651888923542
0 DELTA 1 DEB
1  3811U 68114C   19239.85761668 -.00000063 +00000-0 -65948-4 0  9991
2  3811 101.9491 018.4818 0138597 079.9332 071.9795 12.76275150361156
0 DELTA 1 DEB
1  3812U 68114D   19239.56150365 -.00000039 +00000-0 +51596-4 0  9992
2  3812 102.2154 194.6742 0071991 016.9028 033.8502 12.37712678290092
0 DELTA 1 DEB
1  3812U 68114D   19240.85612853 -.00000038  00000-0  56066-4 0  9997
2  3812 102.2156 195.9672 0071989  14.5018  42.4231 12.37712763290630
0 SL-8 R/B
1  3819U 69024B   19240.74825206 -.00000068  00000-0 -12244-3 0  9994
2  3819  73.9919 327.9426 0010710 262.0755 212.6336 13.19482581429662
0 SL-8 R/B
1  3819U 69024B   19239.68536722 -.00000132 +00000-0 -28191-3 0  9997
2  3819 073.9920 329.5488 0010711 263.6476 204.0223 13.19482538429110
